     2              NAVIGATION DATA                         RINEX VERSION / TYPE
CCRINEXN V1.6.0 UX  CDDIS               07-FEB-17 13:19     PGM / RUN BY / DATE 
IGS BROADCAST EPHEMERIS FILE                                COMMENT             
    0.8382D-08 -0.7451D-08 -0.5960D-07  0.5960D-07          ION ALPHA           
    0.8806D+05 -0.3277D+05 -0.1966D+06  0.1966D+06          ION BETA            
    0.931322574615D-09-0.710542735760D-14   405504     1935 DELTA-UTC: A0,A1,T,W
    18                                                      LEAP SECONDS        
                                                            END OF HEADER       
 S YY MM DD SS:
19 17  2  7 14  0  0.0-0.513754785061D-03 0.102318153950D-11 0.000000000000D+00
    0.660000000000D+02-0.107000000000D+03 0.423517641210D-08-0.145244063804D+01
   -0.534765422344D-05 0.101832493674D-01 0.352598726749D-05 0.515365171814D+04
    0.223200000000D+06 0.271946191788D-06-0.146971205954D+01 0.186264514923D-07
    0.975907014056D+00 0.312375000000D+03 0.913570822440D+00-0.813105297671D-08
   -0.135719938994D-09 0.100000000000D+01 0.193500000000D+04 0.000000000000D+00
    0.200000000000D+01 0.000000000000D+00-0.153668224812D-07 0.660000000000D+02
    0.216000000000D+06 0.400000000000D+01 0.000000000000D+00 0.000000000000D+00
20 17  2  7 14  0  0.0 0.459019094706D-03 0.170530256582D-11 0.000000000000D+00
    0.720000000000D+02 0.182812500000D+02 0.562916304866D-08 0.826854335928D+00
    0.994652509689D-06 0.461774528958D-02 0.791810452938D-05 0.515362616730D+04
    0.223200000000D+06-0.121071934700D-06 0.436820870908D+00 0.223517417908D-07
    0.926966533614D+00 0.211500000000D+03 0.154922566701D+01-0.858642908781D-08
    0.496449250533D-09 0.100000000000D+01 0.193500000000D+04 0.000000000000D+00
    0.200000000000D+01 0.000000000000D+00-0.838190317154D-08 0.720000000000D+02
    0.216000000000D+06 0.400000000000D+01 0.000000000000D+00 0.000000000000D+00
21 17  2  7 14  0  0.0-0.522388145328D-03 0.159161572810D-11 0.000000000000D+00
    0.520000000000D+02-0.648125000000D+02 0.466269421993D-08-0.215628596809D+01
   -0.335648655891D-05 0.238299298799D-01 0.102855265141D-04 0.515374607086D+04
    0.223200000000D+06 0.342726707459D-06-0.552228503242D+00 0.689178705216D-07
    0.938973027058D+00 0.158250000000D+03-0.171292009971D+01-0.769960643380D-08
    0.351800368183D-09 0.100000000000D+01 0.193500000000D+04 0.000000000000D+00
    0.200000000000D+01 0.000000000000D+00-0.977888703346D-08 0.520000000000D+02
    0.216018000000D+06 0.400000000000D+01 0.000000000000D+00 0.000000000000D+00
22 17  2  7 14  0  0.0 0.108588021249D-03-0.114823706099D-10 0.000000000000D+00
    0.105000000000D+03 0.194375000000D+02 0.583881463864D-08 0.119706916111D+01
    0.977888703346D-06 0.738666986581D-02 0.774115324020D-05 0.515358943367D+04
    0.223200000000D+06-0.134110450745D-06 0.488374566304D+00-0.577419996262D-07
    0.923595214031D+00 0.215625000000D+03-0.180841457893D+01-0.868071872964D-08
    0.482877256633D-09 0.100000000000D+01 0.193500000000D+04 0.000000000000D+00
    0.280000000000D+01 0.000000000000D+00-0.176951289177D-07 0.105000000000D+03
    0.216000000000D+06 0.000000000000D+00 0.000000000000D+00 0.000000000000D+00
23 17  2  7 14  0  0.0-0.204748008400D-03-0.102318153950D-11 0.000000000000D+00
    0.110000000000D+02-0.119375000000D+02 0.531272129617D-08 0.491659548851D+00
   -0.461935997009D-06 0.112374899909D-01 0.690110027790D-05 0.515379313660D+04
    0.223200000000D+06-0.372529029846D-08 0.157048466819D+01 0.124797224999D-06
    0.944347687140D+00 0.235437500000D+03-0.250323777719D+01-0.852035490698D-08
   -0.590024576892D-09 0.100000000000D+01 0.193500000000D+04 0.000000000000D+00
    0.200000000000D+01 0.000000000000D+00-0.200234353542D-07 0.110000000000D+02
    0.216000000000D+06 0.400000000000D+01 0.000000000000D+00 0.000000000000D+00
24 17  2  7 14  0  0.0-0.301483087242D-04-0.568434188608D-12 0.000000000000D+00
    0.111000000000D+03 0.580312500000D+02 0.465555106525D-08-0.181310795660D+00
    0.298209488392D-05 0.548925145995D-02 0.108201056719D-04 0.515370785332D+04
    0.223200000000D+06 0.633299350738D-07 0.259480644113D+01 0.651925802231D-07
    0.946678930486D+00 0.161500000000D+03 0.452219730938D+00-0.811783814054D-08
   -0.346443002170D-09 0.100000000000D+01 0.193500000000D+04 0.000000000000D+00
    0.200000000000D+01 0.000000000000D+00 0.232830643654D-08 0.111000000000D+03
    0.222360000000D+06 0.400000000000D+01 0.000000000000D+00 0.000000000000D+00
25 17  2  7 14  0  0.0-0.331759452820D-03-0.670752342558D-11 0.000000000000D+00
    0.990000000000D+02 0.885937500000D+02 0.409624205350D-08-0.216741768480D+01
    0.462308526039D-05 0.610115076415D-02 0.401400029659D-05 0.515363785362D+04
    0.223200000000D+06 0.335276126862D-07-0.260954454203D+01-0.521540641785D-07
    0.977901465864D+00 0.311468750000D+03 0.753290786408D+00-0.802569144512D-08
    0.257153568621D-09 0.000000000000D+00 0.193500000000D+04 0.000000000000D+00
    0.200000000000D+01 0.000000000000D+00 0.558793544769D-08 0.990000000000D+02
    0.216390000000D+06 0.400000000000D+01 0.000000000000D+00 0.000000000000D+00
26 17  2  7 14  0  0.0-0.519568566233D-03-0.568434188608D-12 0.000000000000D+00
    0.700000000000D+02 0.942812500000D+02 0.461447792581D-08-0.260869833169D+01
    0.498443841934D-05 0.166287389584D-02 0.376254320145D-05 0.515365345764D+04
    0.223200000000D+06 0.763684511185D-07-0.262303249896D+01-0.353902578354D-07
    0.959737942286D+00 0.309062500000D+03-0.924268731274D-01-0.837320592049D-08
    0.276082928534D-09 0.100000000000D+01 0.193500000000D+04 0.000000000000D+00
    0.200000000000D+01 0.000000000000D+00 0.698491930962D-08 0.700000000000D+02
    0.216018000000D+06 0.400000000000D+01 0.000000000000D+00 0.000000000000D+00
27 17  2  7 14  0  0.0 0.205894932151D-03 0.579802872380D-11 0.000000000000D+00
    0.149000000000D+03-0.947187500000D+02 0.436589614281D-08 0.182083479731D+01
   -0.495277345181D-05 0.432898069266D-02 0.356324017048D-05 0.515366309357D+04
    0.223200000000D+06-0.353902578354D-07-0.156924879646D+01 0.130385160446D-06
    0.973597762758D+00 0.315812500000D+03 0.277505493298D+00-0.831820362943D-08
   -0.208580116771D-09 0.100000000000D+01 0.193500000000D+04 0.000000000000D+00
    0.200000000000D+01 0.000000000000D+00 0.186264514923D-08 0.149000000000D+03
    0.216018000000D+06 0.400000000000D+01 0.000000000000D+00 0.000000000000D+00
28 17  2  7 14  0  0.0 0.588004011661D-03 0.295585778076D-11 0.000000000000D+00
    0.400000000000D+01 0.104468750000D+03 0.381980196723D-08 0.258465664820D+01
    0.522658228874D-05 0.199917657301D-01 0.295229256153D-05 0.515364406204D+04
    0.223200000000D+06 0.160187482834D-06-0.253209189794D+01-0.987201929092D-07
    0.989098291205D+00 0.331968750000D+03-0.157624114258D+01-0.774710841245D-08
    0.191079387795D-09 0.100000000000D+01 0.193500000000D+04 0.000000000000D+00
    0.200000000000D+01 0.000000000000D+00-0.111758708954D-07 0.400000000000D+01
    0.216000000000D+06 0.400000000000D+01 0.000000000000D+00 0.000000000000D+00
29 17  2  7 14  0  0.0 0.628288369626D-03-0.238742359215D-11 0.000000000000D+00
    0.790000000000D+02-0.866875000000D+02 0.410767110099D-08-0.230685335452D+01
   -0.450387597084D-05 0.651568640023D-03 0.407919287682D-05 0.515368023872D+04
    0.223200000000D+06-0.316649675369D-07-0.150784119941D+01 0.372529029846D-08
    0.979757560732D+00 0.310968750000D+03-0.181682572883D+00-0.810783772399D-08
   -0.132148361653D-09 0.100000000000D+01 0.193500000000D+04 0.000000000000D+00
    0.280000000000D+01 0.000000000000D+00-0.102445483208D-07 0.790000000000D+02
    0.216000000000D+06 0.400000000000D+01 0.000000000000D+00 0.000000000000D+00
30 17  2  7 14  0  0.0 0.160633586347D-03 0.113686837722D-12 0.000000000000D+00
    0.880000000000D+02 0.855625000000D+02 0.438482550272D-08-0.101748091053D+01
    0.433437526226D-05 0.242725014687D-02 0.119339674711D-04 0.515372563934D+04
    0.223200000000D+06-0.149011611938D-07 0.268683509040D+01-0.100582838059D-06
    0.949446784658D+00 0.142906250000D+03 0.307186838335D+01-0.792104422900D-08
   -0.265011038773D-09 0.100000000000D+01 0.193500000000D+04 0.000000000000D+00
    0.200000000000D+01 0.000000000000D+00 0.372529029846D-08 0.880000000000D+02
    0.216000000000D+06 0.400000000000D+01 0.000000000000D+00 0.000000000000D+00
31 17  2  7 14  0  0.0 0.220475718379D-03-0.227373675443D-11 0.000000000000D+00
    0.290000000000D+02 0.749687500000D+02 0.413552940426D-08-0.124206285681D+01
    0.377930700779D-05 0.853895791806D-02 0.106077641249D-04 0.515364770889D+04
    0.223200000000D+06-0.726431608200D-07 0.265681161535D+01-0.968575477600D-07
    0.968452112261D+00 0.182781250000D+03-0.289740200500D+00-0.779782481070D-08
   -0.164292557730D-09 0.100000000000D+01 0.193500000000D+04 0.000000000000D+00
    0.200000000000D+01 0.000000000000D+00-0.135041773319D-07 0.290000000000D+02
    0.216018000000D+06 0.400000000000D+01 0.000000000000D+00 0.000000000000D+00
32 17  2  7 14  0  0.0-0.311242416501D-03-0.140971678775D-10 0.000000000000D+00
    0.130000000000D+02-0.151562500000D+02 0.485377360772D-08 0.262764162864D+01
   -0.810250639915D-06 0.741987489164D-03 0.720843672752D-05 0.515368723679D+04
    0.223200000000D+06-0.279396772385D-07 0.157030259780D+01 0.223517417908D-07
    0.957984239980D+00 0.239625000000D+03-0.280438315036D+01-0.811890961374D-08
   -0.452876006961D-09 0.100000000000D+01 0.193500000000D+04 0.000000000000D+00
    0.200000000000D+01 0.000000000000D+00 0.465661287308D-09 0.130000000000D+02
    0.220980000000D+06 0.400000000000D+01 0.000000000000D+00 0.000000000000D+00
